#aV2011 11 15  0  0   .00000000      96 DD+AD WGS84 FIT  NGA
## 1662 172800.00000000   900.00000000 55880  .0000000000000
+   31     1  2  3  4  5  6  7  8  9 10 11 12 13 14 15 16 17
+         18 19 20 21 22 23 25 26 27 28 29 30 31 32  0  0  0
+          0  0  0  0  0  0  0  0  0  0  0  0  0  0  0  0  0
+          0  0  0  0  0  0  0  0  0  0  0  0  0  0  0  0  0
+          0  0  0  0  0  0  0  0  0  0  0  0  0  0  0  0  0
++         0  0  0  0  0  0  0  0  0  0  0  0  0  0  0  0  0
++         0  0  0  0  0  0  0  0  0  0  0  0  0  0  0  0  0
++         0  0  0  0  0  0  0  0  0  0  0  0  0  0  0  0  0
++         0  0  0  0  0  0  0  0  0  0  0  0  0  0  0  0  0
++         0  0  0  0  0  0  0  0  0  0  0  0  0  0  0  0  0
%c cc cc ccc ccc cccc cccc cccc cccc ccccc ccccc ccccc ccccc
%c cc cc ccc ccc cccc cccc cccc cccc ccccc ccccc ccccc ccccc
%f  0.0000000  0.000000000  0.00000000000  0.000000000000000
%f  0.0000000  0.000000000  0.00000000000  0.000000000000000
%i    0    0    0    0      0      0      0      0         0
%i    0    0    0    0      0      0      0      0         0
/*      NGA, ST. LOUIS,MO.                                  
/*   EPHEMERIS COMPUTED FROM  3 DAYS OF DATA                
/* CCCCCCCCCCCCCCCCCCCCCCCCCCCCCCCCCCCCCCCCCCCCCCCCCCCCCCCCC
/* CCCCCCCCCCCCCCCCCCCCCCCCCCCCCCCCCCCCCCCCCCCCCCCCCCCCCCCCC
*  2011 11 15  7 30   .00000000                                                 
P  1 -20048.412178 -13537.946453 -10987.501913     94.402819                    
V  1  14077.053635   1359.909971 -27392.714969       .212918                    
P  2  -2268.563678  15647.538006  21439.335555    365.706417                    
V  2 -26188.583271  -6987.141766   1839.664506       .018145                    
P  3   7198.986115 -22896.414477 -11503.372450    795.260889                    
V  3  11357.818813  -8995.616142  26333.815287       .050867                    
P  4 -17268.808714   8844.118093  18046.451977      4.441656                    
V  4 -21966.500587  -8103.615168 -16495.348039       .112550                    
P  5   1671.135445  25613.250957   6559.709658   -245.417502                    
V  5  -4992.493039  -7389.943048  30169.551139      -.049595                    
P  6  12360.494551 -21940.329748  -7887.298862      2.701337                    
V  6   9610.294740  -5146.841176  29146.962120       .055922                    
P  7 -25905.748021  -5863.815716  -2636.459391     37.479665                    
V  7  -2591.702642  -3005.866463  31681.747583       .022028                    
P  8 -23551.503988   -257.965791 -12780.093975       .097770                    
V  8 -14614.419911  -6687.517571  26397.247699       .000730                    
P  9  16748.734562  14767.566980 -14908.259707    118.465154                    
V  9 -17692.295943  -3303.824346 -24063.982062       .024848                    
P 10 -11542.670246  13033.700357  19716.444711    -19.119354                    
V 10  -7197.285658 -24718.781823  12372.736600      -.011520                    
P 11 -15396.424912 -14056.179952 -16990.996303   -204.135494                    
V 11  21099.944909  -2333.320593 -17225.272251      -.035016                    
P 12  11813.463998  21758.805113   9856.004786     34.812601                    
V 12    920.335332  12537.383677 -28636.079249       .023023                    
P 13 -18704.793741   -715.222269  18743.275160    241.372710                    
V 13  17953.062882 -15939.064662  17103.808763      -.019555                    
P 14  21414.832590 -15090.550755  -3697.476863    181.345789                    
V 14  -2247.137671   4947.501930 -31827.725582       .018013                    
P 15   4784.797976  16113.538187 -20515.339033    -99.312953                    
V 15 -19180.903908  17820.002079   9706.188286       .011002                    
P 16   -637.388774 -25486.154907   6886.236574   -208.956277                    
V 16   4139.855026   8100.910325  30714.369517      -.020036                    
P 17 -21359.075568  14703.426173  -4971.232885    165.627344                    
V 17   2863.917313  -6578.303963 -31082.975159      -.019472                    
P 18  16435.864326   4610.861465 -20088.232793    167.170586                    
V 18   5061.401457  25822.045698   9539.213951       .018459                    
P 19   -879.188572 -17376.033966 -19995.646410   -205.064272                    
V 19  20542.151759 -15049.776215  12555.069896      -.039500                    
P 20 -13606.782957 -20609.011897   9716.240403     56.144088                    
V 20   -401.483367 -12999.846411 -27637.964769       .006735                    
P 21  25961.461545   3166.142624  -5737.853792   -184.597693                    
V 21   6546.680712   5231.398631  29578.217871      -.024757                    
P 22  12610.192246 -11723.529652 -20021.249942    143.468040                    
V 22   7191.578051  24980.420804 -10119.057631      -.000689                    
P 23 -12367.918522  -9122.653927  21712.513725    259.216553                    
V 23  19890.321473 -18953.381583   3015.821436      -.032394                    
P 25  15715.062444  12433.191955  17422.647923     27.651999                    
V 25   4110.741899  21818.806450 -19219.326346       .012490                    
P 26  -7839.546649  20068.934943 -15861.918223   -226.723767                    
V 26 -15758.245935  11013.384344  22959.353352      -.134995                    
P 27  11778.115308  15142.416367 -17898.522917    325.818030                    
V 27 -23469.569301  -4427.229897 -18146.302119       .039919                    
P 28 -13111.822717   7561.977350 -21262.647355     84.396717                    
V 28  -6222.537123 -27574.250173  -6066.938926       .033936                    
P 29  18532.297340   1242.964990  19033.653374    257.554904                    
V 29 -17032.636023  17029.233574  15560.673714       .033431                    
P 30   8579.133862 -15875.895775  19138.996321     48.401555                    
V 30   9849.769732  23112.029776  14466.666803      -.086776                    
P 31  13473.301843 -10402.236096  20652.441438    169.605526                    
V 31  24372.382985   8013.557814 -11767.864698       .051211                    
P 32  -6739.915684 -25720.115120   3647.645245   -361.985079                    
V 32   1888.898817  -4628.799710 -30862.064193      -.060731                    
EOF
